G21 G17 G90
G54
T1 M6
S10000 M3
G0 F8000 Z5
G0 X21 Y20
G1 F100 Z-2.5
G1 F300 X39
G1 X21
G1 X18 Y18
G1 X42
G1 Y22
G1 X18
G1 Y18
G1 X15 Y15
G1 X45
G1 Y25
G1 X15
G1 Y15
G1 X12 Y12
G1 X48
G1 Y28
G1 X12
G1 Y12
G1 X9 Y9
G1 X51
G1 Y31
G1 X9
G1 Y9
G1 X6 Y6
G1 X54
G1 Y34
G1 X6
G1 Y6
G1 X3 Y3
G1 X57
G1 Y37
G1 X3
G1 Y3
G0 F8000 Z5
G0 X21 Y20
G1 F100 Z-5
G1 F300 X39
G1 X21
G1 X18 Y18
G1 X42
G1 Y22
G1 X18
G1 Y18
G1 X15 Y15
G1 X45
G1 Y25
G1 X15
G1 Y15
G1 X12 Y12
G1 X48
G1 Y28
G1 X12
G1 Y12
G1 X9 Y9
G1 X51
G1 Y31
G1 X9
G1 Y9
G1 X6 Y6
G1 X54
G1 Y34
G1 X6
G1 Y6
G1 X3 Y3
G1 X57
G1 Y37
G1 X3
G1 Y3
G0 F8000 Z5
M5
M30
