S600 M3
G1 F1500 X10 Y0 Z0.2
S300
G1 X10.103271 Y0.147461
G1 X10.224609 Y0.335938
G1 X10.362549 Y0.55957
G1 X10.515625 Y0.8125
G1 X10.682373 Y1.088867
G1 X10.861328 Y1.382812
G1 X11.051025 Y1.688477
G1 X11.25 Y2
G1 X11.456787 Y2.311523
G1 X11.669922 Y2.617188
G1 X11.887939 Y2.911133
G1 X12.109375 Y3.1875 Z0.2
G1 X12.332764 Y3.44043
G1 X12.556641 Y3.664062
G1 X12.779541 Y3.852539
G1 X13 Y4 Z0.2
G1 X13.224365 Y4.117188
G1 X13.458984 Y4.21875
G1 X13.702393 Y4.304688
G1 X13.953125 Y4.375
G1 X14.209717 Y4.429688
G1 X14.470703 Y4.46875
G1 X14.734619 Y4.492188
G1 X15 Y4.5
G1 X15.265381 Y4.492188
G1 X15.529297 Y4.46875
G1 X15.790283 Y4.429688
G1 X16.046875 Y4.375 Z0.2
G1 X16.297607 Y4.304688
G1 X16.541016 Y4.21875
G1 X16.775635 Y4.117188
G1 X17 Y4 Z0.2
G1 X17.220459 Y3.852539
G1 X17.443359 Y3.664062
G1 X17.667236 Y3.44043
G1 X17.890625 Y3.1875
G1 X18.112061 Y2.911133
G1 X18.330078 Y2.617188
G1 X18.543213 Y2.311523
G1 X18.75 Y2
G1 X18.948975 Y1.688477
G1 X19.138672 Y1.382812
G1 X19.317627 Y1.088867
G1 X19.484375 Y0.8125 Z0.2
G1 X19.637451 Y0.55957
G1 X19.775391 Y0.335938
G1 X19.896729 Y0.147461
G1 X20 Y0 Z0.2
M5
M117 cut complete
