; generated by PrusaSlicer 2.7.0
; a tiny PrusaSlicer-style sample: feature markers + a config block + 45° infill
M83
;Z:0.2
;TYPE:External perimeter
G1 X0 Y0 F9000
G1 X10 Y0 E0.4 F1200
G1 X10 Y10 E0.4
G1 X0 Y10 E0.4
G1 X0 Y0 E0.4
;TYPE:Internal infill
G1 X0 Y0 F9000
G1 X10 Y10 E0.6 F1800
G1 X2 Y0 F9000
G1 X10 Y8 E0.5 F1800
G1 X0 Y2 F9000
G1 X8 Y10 E0.5 F1800
G1 X4 Y0 F9000
G1 X10 Y6 E0.4 F1800
; prusaslicer config block:
; layer_height = 0.2
; extrusion_width = 0.45
; fill_angle = 45
; fill_density = 20%
