;FLAVOR:Marlin
;Generated with Cura_SteamEngine 5.0
; a tiny two-layer sample with feature markers, for `dry forensics-gcode`
M140 S60
M104 S210
M190 S60
M109 S210
G28
G90
M83
;LAYER:0
G1 Z0.2 F600
;TYPE:WALL-OUTER
G1 X0 Y0 F9000
G1 X20 Y0 E0.8 F1200
G1 X20 Y20 E0.8
G1 X0 Y20 E0.8
G1 X0 Y0 E0.8
;TYPE:FILL
G1 X2 Y2 F9000
G1 X18 Y18 E0.6 F1800
;LAYER:1
G1 Z0.4 F600
;TYPE:WALL-OUTER
G1 X0 Y0 F9000
G1 X20 Y0 E0.8 F1200
G1 X20 Y20 E0.8
G1 X0 Y20 E0.8
G1 X0 Y0 E0.8
;TYPE:FILL
G1 X2 Y2 F9000
G1 X18 Y18 E0.6 F1800
M104 S0
M140 S0
