G1 F1500 X-0.005493 Y-0.007324 Z0.2 E0.000244
G1 X-0.020508 Y-0.027344 E0.000666
G1 X-0.042847 Y-0.057129 E0.000991
G1 X-0.070312 Y-0.09375 E0.001218
G1 X-0.100708 Y-0.134277 E0.001348
G1 X-0.131836 Y-0.175781 E0.00138
G1 X-0.161499 Y-0.215332 E0.001315
G1 X-0.1875 Y-0.25 E0.001153
G1 X-0.207642 Y-0.276855 E0.000893
G1 X-0.219727 Y-0.292969 E0.000536
G1 X-0.221558 Y-0.29541 E0.000081
G1 X-0.210938 Y-0.28125 Z0.2 E0.000471
G1 X-0.185669 Y-0.247559 E0.001121
G1 X-0.143555 Y-0.191406 E0.001868
G1 X-0.082397 Y-0.109863 E0.002712
G1 X0 Y0 Z0.2 E0.003654
G1 X0.103271 Y0.147461 E0.00479
G1 X0.224609 Y0.335938 E0.005964
G1 X0.362549 Y0.55957 E0.006991
G1 X0.515625 Y0.8125 E0.007867
G1 X0.682373 Y1.088867 E0.008588
G1 X0.861328 Y1.382812 E0.009157
G1 X1.051025 Y1.688477 E0.009572
G1 X1.25 Y2 E0.009836
G1 X1.456787 Y2.311523 E0.009949
G1 X1.669922 Y2.617188 E0.009915
G1 X1.887939 Y2.911133 E0.009738
G1 X2.109375 Y3.1875 Z0.2 E0.009423
G1 X2.332764 Y3.44043 E0.008979
G1 X2.556641 Y3.664062 E0.00842
G1 X2.779541 Y3.852539 E0.007767
G1 X3 Y4 Z0.2 E0.007057
G1 X3.224365 Y4.117188 E0.006735
G1 X3.458984 Y4.21875 E0.006803
G1 X3.702393 Y4.304688 E0.006868
G1 X3.953125 Y4.375 E0.006929
G1 X4.209717 Y4.429688 E0.006981
G1 X4.470703 Y4.46875 E0.007022
G1 X4.734619 Y4.492188 E0.00705
G1 X5 Y4.5 E0.007064
G1 X5.265381 Y4.492188 E0.007064
G1 X5.529297 Y4.46875 E0.00705
G1 X5.790283 Y4.429688 E0.007022
G1 X6.046875 Y4.375 Z0.2 E0.006981
G1 X6.297607 Y4.304688 E0.006929
G1 X6.541016 Y4.21875 E0.006868
G1 X6.775635 Y4.117188 E0.006803
G1 X7 Y4 Z0.2 E0.006735
G1 X7.220459 Y3.852539 E0.007057
G1 X7.443359 Y3.664062 E0.007767
G1 X7.667236 Y3.44043 E0.00842
G1 X7.890625 Y3.1875 E0.008979
G1 X8.112061 Y2.911133 E0.009423
G1 X8.330078 Y2.617188 E0.009738
G1 X8.543213 Y2.311523 E0.009915
G1 X8.75 Y2 E0.009949
G1 X8.948975 Y1.688477 E0.009836
G1 X9.138672 Y1.382812 E0.009572
G1 X9.317627 Y1.088867 E0.009157
G1 X9.484375 Y0.8125 Z0.2 E0.008588
G1 X9.637451 Y0.55957 E0.007867
G1 X9.775391 Y0.335938 E0.006991
G1 X9.896729 Y0.147461 E0.005964
G1 X10 Y0 Z0.2 E0.00479
